[{"OBJECT_NAME":"STARLINK-5525","OBJECT_ID":"2023-094A","EPOCH":"2026-03-09T22:00:01.999584","MEAN_MOTION":15.1907156,"ECCENTRICITY":0.00012507,"INCLINATION":43.0019,"RA_OF_ASC_NODE":28.7896,"ARG_OF_PERICENTER":233.0657,"MEAN_ANOMALY":277.2723,"EPHEMERIS_TYPE":0,"CLASSIFICATION_TYPE":"U","NORAD_CAT_ID":57218,"ELEMENT_SET_NO":999,"REV_AT_EPOCH":567,"BSTAR":0.056169201,"MEAN_MOTION_DOT":0.01299999,"MEAN_MOTION_DDOT":0},{"OBJECT_NAME":"LUNA-1","OBJECT_ID":"2025-276DR","EPOCH":"2026-03-09T16:52:45.597792","MEAN_MOTION":15.20784486,"ECCENTRICITY":0.00020745,"INCLINATION":97.4326,"RA_OF_ASC_NODE":144.29,"ARG_OF_PERICENTER":174.5439,"MEAN_ANOMALY":185.582,"EPHEMERIS_TYPE":0,"CLASSIFICATION_TYPE":"U","NORAD_CAT_ID":66777,"ELEMENT_SET_NO":999,"REV_AT_EPOCH":1533,"BSTAR":0.00042338714,"MEAN_MOTION_DOT":9.266e-5,"MEAN_MOTION_DDOT":0}]
